[{"OBJECT_NAME":"HULIANWANG DIGUI-01","OBJECT_ID":"2024-240A","EPOCH":"2026-03-06T15:07:53.661216","MEAN_MOTION":13.24420619,"ECCENTRICITY":0.00019546,"INCLINATION":86.5032,"RA_OF_ASC_NODE":17.8128,"ARG_OF_PERICENTER":85.4951,"MEAN_ANOMALY":274.6407,"EPHEMERIS_TYPE":0,"CLASSIFICATION_TYPE":"U","NORAD_CAT_ID":62323,"ELEMENT_SET_NO":999,"REV_AT_EPOCH":5906,"BSTAR":6.9700878e-5,"MEAN_MOTION_DOT":4.5e-7,"MEAN_MOTION_DDOT":0},{"OBJECT_NAME":"HULIANWANG DIGUI-02","OBJECT_ID":"2024-240B","EPOCH":"2026-03-06T15:18:38.183616","MEAN_MOTION":13.24422226,"ECCENTRICITY":0.00018844,"INCLINATION":86.5061,"RA_OF_ASC_NODE":17.9407,"ARG_OF_PERICENTER":89.2435,"MEAN_ANOMALY":270.8915,"EPHEMERIS_TYPE":0,"CLASSIFICATION_TYPE":"U","NORAD_CAT_ID":62324,"ELEMENT_SET_NO":999,"REV_AT_EPOCH":5907,"BSTAR":0.00010512215,"MEAN_MOTION_DOT":6.0e-7,"MEAN_MOTION_DDOT":0},{"OBJECT_NAME":"HULIANWANG DIGUI-03","OBJECT_ID":"2024-240C","EPOCH":"2026-03-06T14:56:50.707968","MEAN_MOTION":13.24422185,"ECCENTRICITY":0.00020275,"INCLINATION":86.5015,"RA_OF_ASC_NODE":17.7347,"ARG_OF_PERICENTER":84.0137,"MEAN_ANOMALY":276.1229,"EPHEMERIS_TYPE":0,"CLASSIFICATION_TYPE":"U","NORAD_CAT_ID":62325,"ELEMENT_SET_NO":999,"REV_AT_EPOCH":5906,"BSTAR":4.2049698e-5,"MEAN_MOTION_DOT":3.3e-7,"MEAN_MOTION_DDOT":0},{"OBJECT_NAME":"HULIANWANG DIGUI-04","OBJECT_ID":"2024-240D","EPOCH":"2026-03-06T14:46:00.871104","MEAN_MOTION":13.24421911,"ECCENTRICITY":0.00020658,"INCLINATION":86.5025,"RA_OF_ASC_NODE":17.7691,"ARG_OF_PERICENTER":84.7226,"MEAN_ANOMALY":275.4143,"EPHEMERIS_TYPE":0,"CLASSIFICATION_TYPE":"U","NORAD_CAT_ID":62326,"ELEMENT_SET_NO":999,"REV_AT_EPOCH":5906,"BSTAR":5.5333492e-5,"MEAN_MOTION_DOT":3.8e-7,"MEAN_MOTION_DDOT":0},{"OBJECT_NAME":"HULIANWANG DIGUI-05","OBJECT_ID":"2024-240E","EPOCH":"2026-03-06T14:35:12.394176","MEAN_MOTION":13.24421149,"ECCENTRICITY":0.00020956,"INCLINATION":86.5076,"RA_OF_ASC_NODE":17.9917,"ARG_OF_PERICENTER":83.7394,"MEAN_ANOMALY":276.3979,"EPHEMERIS_TYPE":0,"CLASSIFICATION_TYPE":"U","NORAD_CAT_ID":62327,"ELEMENT_SET_NO":999,"REV_AT_EPOCH":5906,"BSTAR":7.3083881e-5,"MEAN_MOTION_DOT":4.6e-7,"MEAN_MOTION_DDOT":0},{"OBJECT_NAME":"HULIANWANG DIGUI-06","OBJECT_ID":"2024-240F","EPOCH":"2026-03-06T14:13:18.133536","MEAN_MOTION":13.24423042,"ECCENTRICITY":0.00020521,"INCLINATION":86.5015,"RA_OF_ASC_NODE":17.7149,"ARG_OF_PERICENTER":88.039,"MEAN_ANOMALY":272.0979,"EPHEMERIS_TYPE":0,"CLASSIFICATION_TYPE":"U","NORAD_CAT_ID":62328,"ELEMENT_SET_NO":999,"REV_AT_EPOCH":5906,"BSTAR":0.00012260198,"MEAN_MOTION_DOT":6.7e-7,"MEAN_MOTION_DDOT":0},{"OBJECT_NAME":"HULIANWANG DIGUI-07","OBJECT_ID":"2024-240G","EPOCH":"2026-03-06T14:02:33.931680","MEAN_MOTION":13.24421134,"ECCENTRICITY":0.00020353,"INCLINATION":86.4985,"RA_OF_ASC_NODE":17.5852,"ARG_OF_PERICENTER":86.383,"MEAN_ANOMALY":273.7537,"EPHEMERIS_TYPE":0,"CLASSIFICATION_TYPE":"U","NORAD_CAT_ID":62329,"ELEMENT_SET_NO":999,"REV_AT_EPOCH":5906,"BSTAR":0.00012704793,"MEAN_MOTION_DOT":6.9e-7,"MEAN_MOTION_DDOT":0},{"OBJECT_NAME":"HULIANWANG DIGUI-08","OBJECT_ID":"2024-240H","EPOCH":"2026-03-06T14:24:21.122208","MEAN_MOTION":13.2442105,"ECCENTRICITY":0.00021413,"INCLINATION":86.5068,"RA_OF_ASC_NODE":17.9516,"ARG_OF_PERICENTER":84.8087,"MEAN_ANOMALY":275.3291,"EPHEMERIS_TYPE":0,"CLASSIFICATION_TYPE":"U","NORAD_CAT_ID":62330,"ELEMENT_SET_NO":999,"REV_AT_EPOCH":5906,"BSTAR":9.8532868e-5,"MEAN_MOTION_DOT":5.7e-7,"MEAN_MOTION_DDOT":0},{"OBJECT_NAME":"HULIANWANG DIGUI-09","OBJECT_ID":"2024-240J","EPOCH":"2026-03-06T13:51:34.912224","MEAN_MOTION":13.24422342,"ECCENTRICITY":0.00019939,"INCLINATION":86.5033,"RA_OF_ASC_NODE":17.854,"ARG_OF_PERICENTER":88.6965,"MEAN_ANOMALY":271.4398,"EPHEMERIS_TYPE":0,"CLASSIFICATION_TYPE":"U","NORAD_CAT_ID":62331,"ELEMENT_SET_NO":999,"REV_AT_EPOCH":5905,"BSTAR":0.00012460091,"MEAN_MOTION_DOT":6.8e-7,"MEAN_MOTION_DDOT":0},{"OBJECT_NAME":"HULIANWANG DIGUI-10","OBJECT_ID":"2024-240K","EPOCH":"2026-03-06T13:40:45.723360","MEAN_MOTION":13.24421736,"ECCENTRICITY":0.0001989,"INCLINATION":86.5064,"RA_OF_ASC_NODE":17.9794,"ARG_OF_PERICENTER":90.4898,"MEAN_ANOMALY":269.6464,"EPHEMERIS_TYPE":0,"CLASSIFICATION_TYPE":"U","NORAD_CAT_ID":62332,"ELEMENT_SET_NO":999,"REV_AT_EPOCH":5905,"BSTAR":0.00011786708,"MEAN_MOTION_DOT":6.5e-7,"MEAN_MOTION_DDOT":0},{"OBJECT_NAME":"HULIANWANG DIGUI-11","OBJECT_ID":"2025-030A","EPOCH":"2026-03-06T12:57:50.986080","MEAN_MOTION":13.29337933,"ECCENTRICITY":7.589e-5,"INCLINATION":49.9992,"RA_OF_ASC_NODE":243.994,"ARG_OF_PERICENTER":171.8275,"MEAN_ANOMALY":188.261,"EPHEMERIS_TYPE":0,"CLASSIFICATION_TYPE":"U","NORAD_CAT_ID":62971,"ELEMENT_SET_NO":999,"REV_AT_EPOCH":5220,"BSTAR":8.6572821e-5,"MEAN_MOTION_DOT":-8.4e-7,"MEAN_MOTION_DDOT":0},{"OBJECT_NAME":"HULIANWANG DIGUI-12","OBJECT_ID":"2025-030B","EPOCH":"2026-03-06T13:09:42.820992","MEAN_MOTION":13.29339986,"ECCENTRICITY":8.784e-5,"INCLINATION":50.0008,"RA_OF_ASC_NODE":244.0835,"ARG_OF_PERICENTER":165.5691,"MEAN_ANOMALY":194.5206,"EPHEMERIS_TYPE":0,"CLASSIFICATION_TYPE":"U","NORAD_CAT_ID":62972,"ELEMENT_SET_NO":999,"REV_AT_EPOCH":5220,"BSTAR":6.6413804e-5,"MEAN_MOTION_DOT":-9.3e-7,"MEAN_MOTION_DDOT":0},{"OBJECT_NAME":"HULIANWANG DIGUI-13","OBJECT_ID":"2025-030C","EPOCH":"2026-03-06T14:34:01.941024","MEAN_MOTION":13.29338004,"ECCENTRICITY":7.202e-5,"INCLINATION":50.0011,"RA_OF_ASC_NODE":243.7392,"ARG_OF_PERICENTER":158.2295,"MEAN_ANOMALY":201.8608,"EPHEMERIS_TYPE":0,"CLASSIFICATION_TYPE":"U","NORAD_CAT_ID":62973,"ELEMENT_SET_NO":999,"REV_AT_EPOCH":5221,"BSTAR":5.6394732e-5,"MEAN_MOTION_DOT":-9.8e-7,"MEAN_MOTION_DDOT":0},{"OBJECT_NAME":"HULIANWANG DIGUI-14","OBJECT_ID":"2025-030D","EPOCH":"2026-03-06T13:58:01.866720","MEAN_MOTION":13.29337831,"ECCENTRICITY":7.964e-5,"INCLINATION":50.0016,"RA_OF_ASC_NODE":243.6271,"ARG_OF_PERICENTER":157.2281,"MEAN_ANOMALY":202.8627,"EPHEMERIS_TYPE":0,"CLASSIFICATION_TYPE":"U","NORAD_CAT_ID":62974,"ELEMENT_SET_NO":999,"REV_AT_EPOCH":5221,"BSTAR":7.3001512e-5,"MEAN_MOTION_DOT":-9.0e-7,"MEAN_MOTION_DDOT":0},{"OBJECT_NAME":"HULIANWANG DIGUI-15","OBJECT_ID":"2025-030E","EPOCH":"2026-03-06T14:22:03.250272","MEAN_MOTION":13.29338048,"ECCENTRICITY":7.127e-5,"INCLINATION":50.0011,"RA_OF_ASC_NODE":243.6985,"ARG_OF_PERICENTER":166.0876,"MEAN_ANOMALY":194.0016,"EPHEMERIS_TYPE":0,"CLASSIFICATION_TYPE":"U","NORAD_CAT_ID":62975,"ELEMENT_SET_NO":999,"REV_AT_EPOCH":5221,"BSTAR":6.3557258e-5,"MEAN_MOTION_DOT":-9.5e-7,"MEAN_MOTION_DDOT":0},{"OBJECT_NAME":"HULIANWANG DIGUI-16","OBJECT_ID":"2025-030F","EPOCH":"2026-03-06T13:45:55.730016","MEAN_MOTION":13.29338553,"ECCENTRICITY":8.165e-5,"INCLINATION":50.0034,"RA_OF_ASC_NODE":243.6363,"ARG_OF_PERICENTER":156.3175,"MEAN_ANOMALY":203.7735,"EPHEMERIS_TYPE":0,"CLASSIFICATION_TYPE":"U","NORAD_CAT_ID":62976,"ELEMENT_SET_NO":999,"REV_AT_EPOCH":5221,"BSTAR":7.4731889e-5,"MEAN_MOTION_DOT":-8.9e-7,"MEAN_MOTION_DDOT":0}]
