HULIANWANG DIGUI-01     
1 62323U 24240A   26065.63048219  .00000045  00000+0  69701-4 0  9995
2 62323  86.5032  17.8128 0001954  85.4951 274.6407 13.24420619 59062
HULIANWANG DIGUI-02     
1 62324U 24240B   26065.63794194  .00000060  00000+0  10512-3 0  9998
2 62324  86.5061  17.9407 0001884  89.2435 270.8915 13.24422226 59076
HULIANWANG DIGUI-03     
1 62325U 24240C   26065.62280912  .00000033  00000+0  42050-4 0  9999
2 62325  86.5015  17.7347 0002027  84.0137 276.1229 13.24422185 59069
HULIANWANG DIGUI-04     
1 62326U 24240D   26065.61528786  .00000038  00000+0  55333-4 0  9996
2 62326  86.5025  17.7691 0002065  84.7226 275.4143 13.24421911 59064
HULIANWANG DIGUI-05     
1 62327U 24240E   26065.60778234  .00000046  00000+0  73084-4 0  9993
2 62327  86.5076  17.9917 0002095  83.7394 276.3979 13.24421149 59062
HULIANWANG DIGUI-06     
1 62328U 24240F   26065.59257099  .00000067  00000+0  12260-3 0  9994
2 62328  86.5015  17.7149 0002052  88.0390 272.0979 13.24423042 59065
HULIANWANG DIGUI-07     
1 62329U 24240G   26065.58511495  .00000069  00000+0  12705-3 0  9993
2 62329  86.4985  17.5852 0002035  86.3830 273.7537 13.24421134 59069
HULIANWANG DIGUI-08     
1 62330U 24240H   26065.60024447  .00000057  00000+0  98533-4 0  9995
2 62330  86.5068  17.9516 0002141  84.8087 275.3291 13.24421050 59062
HULIANWANG DIGUI-09     
1 62331U 24240J   26065.57748741  .00000068  00000+0  12460-3 0  9998
2 62331  86.5033  17.8540 0001993  88.6965 271.4398 13.24422342 59051
HULIANWANG DIGUI-10     
1 62332U 24240K   26065.56997365  .00000065  00000+0  11787-3 0  9994
2 62332  86.5064  17.9794 0001989  90.4898 269.6464 13.24421736 59058
HULIANWANG DIGUI-11     
1 62971U 25030A   26065.54017345 -.00000084  00000+0  86573-4 0  9998
2 62971  49.9992 243.9940 0000758 171.8275 188.2610 13.29337933 52209
HULIANWANG DIGUI-12     
1 62972U 25030B   26065.54841228 -.00000093  00000+0  66414-4 0  9996
2 62972  50.0008 244.0835 0000878 165.5691 194.5206 13.29339986 52202
HULIANWANG DIGUI-13     
1 62973U 25030C   26065.60696691 -.00000098  00000+0  56395-4 0  9998
2 62973  50.0011 243.7392 0000720 158.2295 201.8608 13.29338004 52215
HULIANWANG DIGUI-14     
1 62974U 25030D   26065.58196605 -.00000090  00000+0  73002-4 0  9992
2 62974  50.0016 243.6271 0000796 157.2281 202.8627 13.29337831 52212
HULIANWANG DIGUI-15     
1 62975U 25030E   26065.59864873 -.00000095  00000+0  63557-4 0  9992
2 62975  50.0011 243.6985 0000712 166.0876 194.0016 13.29338048 52211
HULIANWANG DIGUI-16     
1 62976U 25030F   26065.57356169 -.00000089  00000+0  74732-4 0  9995
2 62976  50.0034 243.6363 0000816 156.3175 203.7735 13.29338553 52213
